[{"OBJECT_NAME":"MENUT","OBJECT_ID":"2023-001B","EPOCH":"2026-03-09T22:54:07.816032","MEAN_MOTION":15.48957627,"ECCENTRICITY":0.00067102,"INCLINATION":97.3307,"RA_OF_ASC_NODE":134.6446,"ARG_OF_PERICENTER":114.9436,"MEAN_ANOMALY":245.2513,"EPHEMERIS_TYPE":0,"CLASSIFICATION_TYPE":"U","NORAD_CAT_ID":55010,"ELEMENT_SET_NO":999,"REV_AT_EPOCH":17698,"BSTAR":0.001042068,"MEAN_MOTION_DOT":0.00056578,"MEAN_MOTION_DDOT":0},{"OBJECT_NAME":"CZ-6A DEB","OBJECT_ID":"2024-140XT","EPOCH":"2026-03-09T03:39:44.093088","MEAN_MOTION":15.17507252,"ECCENTRICITY":0.01850271,"INCLINATION":89.7161,"RA_OF_ASC_NODE":331.3348,"ARG_OF_PERICENTER":37.6736,"MEAN_ANOMALY":323.7298,"EPHEMERIS_TYPE":0,"CLASSIFICATION_TYPE":"U","NORAD_CAT_ID":61402,"ELEMENT_SET_NO":999,"REV_AT_EPOCH":8199,"BSTAR":0.0011238517,"MEAN_MOTION_DOT":0.00035461,"MEAN_MOTION_DDOT":0}]
